GLOBALSTAR M079 [+]     
1 37188U 10054A   22364.31989564 -.00000090  00000+0  74715-4 0  9996
2 37188  52.0056 359.1311 0000388  84.3576 289.5904 12.62265108562814
GLOBALSTAR M074 [+]     
1 37189U 10054B   22365.29641622 -.00000097  00000+0  40345-4 0  9994
2 37189  52.0035 355.6203 0000214  68.9721 304.7766 12.62265016563614
GLOBALSTAR M076 [+]     
1 37190U 10054C   22365.24317583 -.00000094  00000+0  57085-4 0  9993
2 37190  52.0049 355.8700 0000471 129.9948 242.6240 12.62269981563611
GLOBALSTAR M077 [+]     
1 37191U 10054D   22364.06135972 -.00000086  00000+0  97464-4 0  9999
2 37191  52.0087 316.0675 0000456  53.1845  44.7176 12.62267269563471
GLOBALSTAR M075 [+]     
1 37192U 10054E   22365.18374965 -.00000097  00000+0  36548-4 0  9999
2 37192  51.9963  38.8053 0000627 120.0341 283.3734 12.62270389562845
GLOBALSTAR M073 [+]     
1 37193U 10054F   22364.57879113 -.00000091  00000+0  72600-4 0  9990
2 37193  52.0075 313.7836 0000467  54.4637 117.5570 12.62269447564229
GLOBALSTAR M083 [+]     
1 37739U 11033A   22365.46342981 -.00000095  00000+0  49021-4 0  9996
2 37739  51.9852 261.0497 0001130  58.9994 115.9024 12.62266447533710
GLOBALSTAR M088 [+]     
1 37740U 11033B   22365.48155905 -.00000086  00000+0  10081-3 0  9991
2 37740  51.9707 167.2400 0001416  94.1894 283.1216 12.62268442529195
GLOBALSTAR M091 [+]     
1 37741U 11033C   22364.55861964 -.00000095  00000+0  46545-4 0  9993
2 37741  51.9987 131.9968 0001255 100.4373 340.0700 12.62270002529575
GLOBALSTAR M085 [+]     
1 37742U 11033D   22365.24784669 -.00000116  00000+0 -68660-4 0  9994
2 37742  51.9889  81.7337 0000827 114.5689 280.2242 12.62264751530661
GLOBALSTAR M081 [+]     
1 37743U 11033E   22364.57823704 -.00000099  00000+0  28923-4 0  9991
2 37743  51.9968  86.0067 0001059 121.5268 347.1161 12.62265644530235
GLOBALSTAR M089 [+]     
1 37744U 11033F   22365.07253826 -.00000088  00000+0  86002-4 0  9990
2 37744  51.9947  38.8968 0000486 162.4649 214.9735 12.62270514531396
GLOBALSTAR M084 [+]     
1 38040U 11080A   22365.00587826 -.00000099  00000+0  28765-4 0  9999
2 38040  52.0006 265.9142 0000632  68.7897 305.0692 12.62265945509398
GLOBALSTAR M080 [+]     
1 38041U 11080B   22365.05869888 -.00000088  00000+0  88734-4 0  9996
2 38041  52.0058 267.0434 0000635  84.1886 290.0957 12.62269055509388
GLOBALSTAR M082 [+]     
1 38042U 11080C   22364.53217043 -.00000092  00000+0  64869-4 0  9997
2 38042  52.0052 223.9990 0001435  57.8457  21.7377 12.62266228509880
GLOBALSTAR M092 [+]     
1 38043U 11080D   22364.60538457 -.00000089  00000+0  81632-4 0  9994
2 38043  52.0097 314.1055 0000257  17.1984 153.7032 12.62265563508558
GLOBALSTAR M090 [+]     
1 38044U 11080E   22365.37048190 -.00000089  00000+0  81877-4 0  9991
2 38044  51.9858 216.4138 0001263  76.2929  94.9695 12.62268443510140
GLOBALSTAR M086 [+]     
1 38045U 11080F   22364.57133781 -.00000094  00000+0  52303-4 0  9992
2 38045  51.9872 219.3275 0001976 104.9253 273.7367 12.62267882509957
GLOBALSTAR M097 [+]     
1 39072U 13005A   22365.38552450 -.00000104  00000+0 -36766-5 0  9999
2 39072  52.0036 130.4779 0001331 105.4249 254.6764 12.62281187457382
GLOBALSTAR M093 [+]     
1 39073U 13005B   22364.48810503 -.00000097  00000+0  37168-4 0  9992
2 39073  51.9801 127.9542 0001434 101.7653 258.3374 12.62267116457140
GLOBALSTAR M094 [+]     
1 39074U 13005C   22364.56736732 -.00000099  00000+0  27941-4 0  9993
2 39074  51.9973  41.1977 0000563 122.6222 237.4699 12.62266493458782
GLOBALSTAR M096 [+]     
1 39075U 13005D   22365.37242173 -.00000109  00000+0 -26927-4 0  9991
2 39075  52.0080  86.5576 0001038 116.9631 243.1341 12.62268768458134
GLOBALSTAR M078 [+]     
1 39076U 13005E   22364.79149621 -.00000092  00000+0  65906-4 0  9991
2 39076  51.9847 174.0578 0001139  49.1688 310.9277 12.62276760456545
GLOBALSTAR M095 [+]     
1 39077U 13005F   22365.21385224 -.00000091  00000+0  71488-4 0  9992
2 39077  51.9772 170.4149 0001497  73.7535 286.3496 12.62262367456602
GLOBALSTAR FM15 [+]     
1 52888U 22064A   22365.05673360 -.00000128  00000+0  00000+0 0  9993
2 52888  51.9808 270.8062 0010194  88.9679 271.2406 13.37547093 26047
